[{"OBJECT_NAME":"ORBCOMM FM118","OBJECT_ID":"2015-081E","EPOCH":"2026-03-09T11:40:57.402336","MEAN_MOTION":14.58732197,"ECCENTRICITY":0.00039245,"INCLINATION":47.0034,"RA_OF_ASC_NODE":113.1194,"ARG_OF_PERICENTER":286.8765,"MEAN_ANOMALY":73.169,"EPHEMERIS_TYPE":0,"CLASSIFICATION_TYPE":"U","NORAD_CAT_ID":41183,"ELEMENT_SET_NO":999,"REV_AT_EPOCH":54317,"BSTAR":0.00026393443,"MEAN_MOTION_DOT":1.073e-5,"MEAN_MOTION_DDOT":0},{"OBJECT_NAME":"CZ-6A DEB","OBJECT_ID":"2024-140YA","EPOCH":"2026-03-09T14:26:17.481408","MEAN_MOTION":14.80843651,"ECCENTRICITY":0.009905,"INCLINATION":89.0273,"RA_OF_ASC_NODE":282.6505,"ARG_OF_PERICENTER":174.5462,"MEAN_ANOMALY":185.6867,"EPHEMERIS_TYPE":0,"CLASSIFICATION_TYPE":"U","NORAD_CAT_ID":61409,"ELEMENT_SET_NO":999,"REV_AT_EPOCH":8023,"BSTAR":0.0018081,"MEAN_MOTION_DOT":0.00015217,"MEAN_MOTION_DDOT":0}]
